{
  "type": "FeatureCollection",
  "features": [
    {
      "type": "Feature",
      "properties": {
        "type": "Streetcar",
        "network": "Detroit Transportation Corporation",
        "route_name": "DPM",
        "color": "#92278F"
      },
      "geometry": {
        "type": "LineString",
        "coordinates": [
          [
            -83.049845,
            42.32821
          ],
          [
            -83.049527,
            42.327672
          ],
          [
            -83.052529,
            42.326156
          ],
          [
            -83.052765,
            42.32601
          ],
          [
            -83.05285,
            42.325822
          ],
          [
            -83.052671,
            42.325233
          ],
          [
            -83.052669,
            42.32523
          ],
          [
            -83.052322,
            42.324836
          ],
          [
            -83.052143,
            42.324699
          ],
          [
            -83.051921,
            42.324659
          ],
          [
            -83.051299,
            42.324583
          ],
          [
            -83.050715,
            42.32456
          ],
          [
            -83.046806,
            42.325607
          ],
          [
            -83.046567,
            42.325712
          ],
          [
            -83.046396,
            42.325829
          ],
          [
            -83.046254,
            42.326032
          ],
          [
            -83.046206,
            42.32623
          ],
          [
            -83.046207,
            42.326413
          ],
          [
            -83.046592,
            42.327336
          ],
          [
            -83.047127,
            42.328139
          ],
          [
            -83.047176,
            42.328238
          ],
          [
            -83.047154,
            42.32839
          ],
          [
            -83.047071,
            42.328502
          ],
          [
            -83.046691,
            42.32868
          ],
          [
            -83.046685,
            42.328682
          ],
          [
            -83.043097,
            42.330269
          ],
          [
            -83.042886,
            42.330351
          ],
          [
            -83.042647,
            42.330365
          ],
          [
            -83.042001,
            42.330273
          ],
          [
            -83.041993,
            42.330271
          ],
          [
            -83.041698,
            42.330202
          ],
          [
            -83.041472,
            42.330127
          ],
          [
            -83.041221,
            42.330001
          ],
          [
            -83.041036,
            42.329927
          ],
          [
            -83.040787,
            42.329934
          ],
          [
            -83.039983,
            42.330157
          ],
          [
            -83.039977,
            42.330162
          ],
          [
            -83.039671,
            42.330384
          ],
          [
            -83.039539,
            42.330562
          ],
          [
            -83.039532,
            42.330719
          ],
          [
            -83.041194,
            42.333326
          ],
          [
            -83.041199,
            42.333333
          ],
          [
            -83.041553,
            42.333778
          ],
          [
            -83.041624,
            42.333882
          ],
          [
            -83.041891,
            42.333989
          ],
          [
            -83.042126,
            42.334139
          ],
          [
            -83.042419,
            42.334617
          ],
          [
            -83.042425,
            42.334624
          ],
          [
            -83.042919,
            42.335264
          ],
          [
            -83.043053,
            42.335377
          ],
          [
            -83.043295,
            42.335443
          ],
          [
            -83.043467,
            42.335433
          ],
          [
            -83.044996,
            42.334821
          ],
          [
            -83.045364,
            42.334571
          ],
          [
            -83.046157,
            42.33371
          ],
          [
            -83.04617,
            42.333707
          ],
          [
            -83.046519,
            42.333619
          ],
          [
            -83.046682,
            42.333589
          ],
          [
            -83.046892,
            42.333593
          ],
          [
            -83.047036,
            42.333645
          ],
          [
            -83.047251,
            42.333868
          ],
          [
            -83.047612,
            42.334347
          ],
          [
            -83.047943,
            42.334818
          ],
          [
            -83.048213,
            42.335449
          ],
          [
            -83.048219,
            42.335459
          ],
          [
            -83.048452,
            42.335825
          ],
          [
            -83.04855,
            42.335931
          ],
          [
            -83.048623,
            42.336009
          ],
          [
            -83.04927,
            42.336292
          ],
          [
            -83.049419,
            42.336302
          ],
          [
            -83.049573,
            42.336278
          ],
          [
            -83.050592,
            42.335782
          ],
          [
            -83.050607,
            42.33578
          ],
          [
            -83.050871,
            42.335745
          ],
          [
            -83.051104,
            42.335721
          ],
          [
            -83.051674,
            42.335834
          ],
          [
            -83.051829,
            42.335814
          ],
          [
            -83.05195,
            42.335771
          ],
          [
            -83.052078,
            42.335699
          ],
          [
            -83.052388,
            42.335282
          ],
          [
            -83.052385,
            42.335164
          ],
          [
            -83.052351,
            42.335033
          ],
          [
            -83.052241,
            42.33484
          ],
          [
            -83.052116,
            42.334629
          ],
          [
            -83.052043,
            42.334425
          ],
          [
            -83.052159,
            42.333579
          ],
          [
            -83.05212,
            42.331363
          ],
          [
            -83.05115,
            42.329505
          ],
          [
            -83.049846,
            42.328212
          ]
        ]
      }
    },
    {
      "type": "Feature",
      "properties": {
        "type": "Streetcar",
        "network": "Detroit Transportation Corporation",
        "route_name": "DPM",
        "color": "#92278F"
      },
      "geometry": {
        "type": "LineString",
        "coordinates": [
          [
            -83.052159,
            42.333579
          ],
          [
            -83.052236,
            42.333146
          ],
          [
            -83.052231,
            42.331755
          ],
          [
            -83.05212,
            42.331363
          ],
          [
            -83.051959,
            42.330726
          ],
          [
            -83.05115,
            42.329505
          ],
          [
            -83.049846,
            42.328212
          ],
          [
            -83.049527,
            42.327672
          ],
          [
            -83.052529,
            42.326156
          ],
          [
            -83.052765,
            42.32601
          ],
          [
            -83.05285,
            42.325822
          ],
          [
            -83.052671,
            42.325233
          ],
          [
            -83.052322,
            42.324836
          ],
          [
            -83.052143,
            42.324699
          ],
          [
            -83.051921,
            42.324659
          ],
          [
            -83.051299,
            42.324583
          ],
          [
            -83.050715,
            42.32456
          ],
          [
            -83.046806,
            42.325607
          ],
          [
            -83.046567,
            42.325712
          ],
          [
            -83.046396,
            42.325829
          ],
          [
            -83.046254,
            42.326032
          ],
          [
            -83.046206,
            42.32623
          ],
          [
            -83.046207,
            42.326413
          ],
          [
            -83.046592,
            42.327336
          ],
          [
            -83.047127,
            42.328139
          ],
          [
            -83.047176,
            42.328238
          ],
          [
            -83.047154,
            42.32839
          ],
          [
            -83.047071,
            42.328502
          ],
          [
            -83.046691,
            42.32868
          ],
          [
            -83.043097,
            42.330269
          ],
          [
            -83.042886,
            42.330351
          ],
          [
            -83.042647,
            42.330365
          ],
          [
            -83.042001,
            42.330273
          ],
          [
            -83.041698,
            42.330202
          ],
          [
            -83.041472,
            42.330127
          ],
          [
            -83.041221,
            42.330001
          ],
          [
            -83.041036,
            42.329927
          ],
          [
            -83.040787,
            42.329934
          ],
          [
            -83.039983,
            42.330157
          ],
          [
            -83.039671,
            42.330384
          ],
          [
            -83.039539,
            42.330562
          ],
          [
            -83.039532,
            42.330719
          ],
          [
            -83.041194,
            42.333326
          ],
          [
            -83.041553,
            42.333778
          ],
          [
            -83.041624,
            42.333882
          ],
          [
            -83.041891,
            42.333989
          ],
          [
            -83.042126,
            42.334139
          ],
          [
            -83.042419,
            42.334617
          ],
          [
            -83.042919,
            42.335264
          ],
          [
            -83.043053,
            42.335377
          ],
          [
            -83.043295,
            42.335443
          ],
          [
            -83.043467,
            42.335433
          ],
          [
            -83.044996,
            42.334821
          ],
          [
            -83.045364,
            42.334571
          ],
          [
            -83.046157,
            42.33371
          ],
          [
            -83.046519,
            42.333619
          ],
          [
            -83.046682,
            42.333589
          ],
          [
            -83.046892,
            42.333593
          ],
          [
            -83.047036,
            42.333645
          ],
          [
            -83.047251,
            42.333868
          ],
          [
            -83.047612,
            42.334347
          ],
          [
            -83.047943,
            42.334818
          ],
          [
            -83.048213,
            42.335449
          ],
          [
            -83.048452,
            42.335825
          ],
          [
            -83.04855,
            42.335931
          ],
          [
            -83.048623,
            42.336009
          ],
          [
            -83.04927,
            42.336292
          ],
          [
            -83.049419,
            42.336302
          ],
          [
            -83.049573,
            42.336278
          ],
          [
            -83.050592,
            42.335782
          ],
          [
            -83.050871,
            42.335745
          ],
          [
            -83.051104,
            42.335721
          ],
          [
            -83.051674,
            42.335834
          ],
          [
            -83.051829,
            42.335814
          ],
          [
            -83.05195,
            42.335771
          ],
          [
            -83.052078,
            42.335699
          ],
          [
            -83.052388,
            42.335282
          ],
          [
            -83.052385,
            42.335164
          ],
          [
            -83.052351,
            42.335033
          ],
          [
            -83.052241,
            42.33484
          ],
          [
            -83.052116,
            42.334629
          ],
          [
            -83.052043,
            42.334425
          ],
          [
            -83.052159,
            42.333579
          ]
        ]
      }
    },
    {
      "type": "Feature",
      "properties": {
        "type": "Streetcar",
        "network": "Detroit Transportation Corporation",
        "route_name": "DPM",
        "color": "#92278F",
        "is_station": true,
        "station_name": "Huntington Place Station"
      },
      "geometry": {
        "type": "Point",
        "coordinates": [
          -83.049846,
          42.328212
        ]
      }
    },
    {
      "type": "Feature",
      "properties": {
        "type": "Streetcar",
        "network": "Detroit Transportation Corporation",
        "route_name": "DPM",
        "color": "#92278F",
        "is_station": true,
        "station_name": "Water Square Station"
      },
      "geometry": {
        "type": "Point",
        "coordinates": [
          -83.052671,
          42.325233
        ]
      }
    },
    {
      "type": "Feature",
      "properties": {
        "type": "Streetcar",
        "network": "Detroit Transportation Corporation",
        "route_name": "DPM",
        "color": "#92278F",
        "is_station": true,
        "station_name": "Financial District Station"
      },
      "geometry": {
        "type": "Point",
        "coordinates": [
          -83.046691,
          42.32868
        ]
      }
    },
    {
      "type": "Feature",
      "properties": {
        "type": "Streetcar",
        "network": "Detroit Transportation Corporation",
        "route_name": "DPM",
        "color": "#92278F",
        "is_station": true,
        "station_name": "Millender Center Station"
      },
      "geometry": {
        "type": "Point",
        "coordinates": [
          -83.042001,
          42.330273
        ]
      }
    },
    {
      "type": "Feature",
      "properties": {
        "type": "Streetcar",
        "network": "Detroit Transportation Corporation",
        "route_name": "DPM",
        "color": "#92278F",
        "is_station": true,
        "station_name": "Renaissance Center Station"
      },
      "geometry": {
        "type": "Point",
        "coordinates": [
          -83.039983,
          42.330157
        ]
      }
    },
    {
      "type": "Feature",
      "properties": {
        "type": "Streetcar",
        "network": "Detroit Transportation Corporation",
        "route_name": "DPM",
        "color": "#92278F",
        "is_station": true,
        "station_name": "Bricktown Station"
      },
      "geometry": {
        "type": "Point",
        "coordinates": [
          -83.041194,
          42.333326
        ]
      }
    },
    {
      "type": "Feature",
      "properties": {
        "type": "Streetcar",
        "network": "Detroit Transportation Corporation",
        "route_name": "DPM",
        "color": "#92278F",
        "is_station": true,
        "station_name": "Greektown Station"
      },
      "geometry": {
        "type": "Point",
        "coordinates": [
          -83.042419,
          42.334617
        ]
      }
    },
    {
      "type": "Feature",
      "properties": {
        "type": "Streetcar",
        "network": "Detroit Transportation Corporation",
        "route_name": "DPM",
        "color": "#92278F",
        "is_station": true,
        "station_name": "Cadillac Center Station"
      },
      "geometry": {
        "type": "Point",
        "coordinates": [
          -83.046157,
          42.33371
        ]
      }
    },
    {
      "type": "Feature",
      "properties": {
        "type": "Streetcar",
        "network": "Detroit Transportation Corporation",
        "route_name": "DPM",
        "color": "#92278F",
        "is_station": true,
        "station_name": "Broadway Station"
      },
      "geometry": {
        "type": "Point",
        "coordinates": [
          -83.048213,
          42.335449
        ]
      }
    },
    {
      "type": "Feature",
      "properties": {
        "type": "Streetcar",
        "network": "Detroit Transportation Corporation",
        "route_name": "DPM",
        "color": "#92278F",
        "is_station": true,
        "station_name": "Grand Circus Park Station"
      },
      "geometry": {
        "type": "Point",
        "coordinates": [
          -83.050592,
          42.335782
        ]
      }
    },
    {
      "type": "Feature",
      "properties": {
        "type": "Streetcar",
        "network": "Detroit Transportation Corporation",
        "route_name": "DPM",
        "color": "#92278F",
        "is_station": true,
        "station_name": "Times Square Station"
      },
      "geometry": {
        "type": "Point",
        "coordinates": [
          -83.052159,
          42.333579
        ]
      }
    },
    {
      "type": "Feature",
      "properties": {
        "type": "Streetcar",
        "network": "Detroit Transportation Corporation",
        "route_name": "DPM",
        "color": "#92278F",
        "is_station": true,
        "station_name": "Michigan Station"
      },
      "geometry": {
        "type": "Point",
        "coordinates": [
          -83.05212,
          42.331363
        ]
      }
    },
    {
      "type": "Feature",
      "properties": {
        "type": "Streetcar",
        "network": "Detroit Transportation Corporation",
        "route_name": "DPM",
        "color": "#92278F",
        "is_station": true,
        "station_name": "Fort/Cass Station"
      },
      "geometry": {
        "type": "Point",
        "coordinates": [
          -83.05115,
          42.329505
        ]
      }
    },
    {
      "type": "Feature",
      "properties": {
        "type": "Streetcar",
        "network": "Qline Detroit",
        "route_name": "QLINE",
        "color": "#EF4D2E"
      },
      "geometry": {
        "type": "LineString",
        "coordinates": [
          [
            -83.07358884631645,
            42.37062542530464
          ],
          [
            -83.07344644230525,
            42.370401194065295
          ],
          [
            -83.07339806373534,
            42.37033999908593
          ],
          [
            -83.07335744306103,
            42.37027140309644
          ],
          [
            -83.07330715079758,
            42.37017708348856
          ],
          [
            -83.07292900838607,
            42.36958071101256
          ],
          [
            -83.07278512842186,
            42.36936655715681
          ],
          [
            -83.07267319801309,
            42.36919834236232
          ],
          [
            -83.07257929126914,
            42.36905581068157
          ],
          [
            -83.07241539960894,
            42.368810162981504
          ],
          [
            -83.07241669434904,
            42.36880987145108
          ],
          [
            -83.07230080241226,
            42.3686384912001
          ],
          [
            -83.07213231210812,
            42.36838684779235
          ],
          [
            -83.0719252651861,
            42.36809839678165
          ],
          [
            -83.07186168273913,
            42.368009683547086
          ],
          [
            -83.07173952501735,
            42.36781523071392
          ],
          [
            -83.07161893166717,
            42.36762367405703
          ],
          [
            -83.07136754453478,
            42.36722157613551
          ],
          [
            -83.07106363605733,
            42.36674954110646
          ],
          [
            -83.07075522377035,
            42.36627741705311
          ],
          [
            -83.07075650444496,
            42.36627741705311
          ],
          [
            -83.07039700402868,
            42.36573882017149
          ],
          [
            -83.070318758334,
            42.36558623749923
          ],
          [
            -83.0702584812681,
            42.36541399642567
          ],
          [
            -83.07016379668322,
            42.3652399128294
          ],
          [
            -83.07000366305122,
            42.36501516557948
          ],
          [
            -83.06971633581875,
            42.36463215914037
          ],
          [
            -83.06946021722032,
            42.36428897911122
          ],
          [
            -83.06934358566022,
            42.36414172307752
          ],
          [
            -83.06914251971656,
            42.36386541413614
          ],
          [
            -83.0689095560282,
            42.36355438841139
          ],
          [
            -83.06865397002873,
            42.36319432107459
          ],
          [
            -83.06833515106075,
            42.362707769975486
          ],
          [
            -83.0680612700799,
            42.36230478848063
          ],
          [
            -83.06784731104368,
            42.361980313095614
          ],
          [
            -83.06756002085719,
            42.36152052191952
          ],
          [
            -83.06737095870048,
            42.36121914977244
          ],
          [
            -83.06737054054759,
            42.361217913861
          ],
          [
            -83.06725107127185,
            42.3610411894023
          ],
          [
            -83.06695080391029,
            42.36058481638901
          ],
          [
            -83.06655447610738,
            42.35998944533398
          ],
          [
            -83.06642521273761,
            42.359782039634325
          ],
          [
            -83.06634713507357,
            42.3596733410588
          ],
          [
            -83.06534841706085,
            42.35820264133716
          ],
          [
            -83.06504099403591,
            42.35778415547432
          ],
          [
            -83.0647961242844,
            42.35742265306058
          ],
          [
            -83.0645529674122,
            42.3570169246367
          ],
          [
            -83.06427371422643,
            42.356510340419504
          ],
          [
            -83.064274169385,
            42.35650966772579
          ],
          [
            -83.0639381777551,
            42.35593913703241
          ],
          [
            -83.0630894992598,
            42.3546751607533
          ],
          [
            -83.06265800567168,
            42.35406114005383
          ],
          [
            -83.06157826565243,
            42.35266215956378
          ],
          [
            -83.06143486783068,
            42.35245984764501
          ],
          [
            -83.06143452378652,
            42.35245963835232
          ],
          [
            -83.05940208231954,
            42.3494452348159
          ],
          [
            -83.05817181237062,
            42.34761738391708
          ],
          [
            -83.05783184124337,
            42.34710370739066
          ],
          [
            -83.05783286946473,
            42.34710598719696
          ],
          [
            -83.05562776208984,
            42.34381806311527
          ],
          [
            -83.0544320123457,
            42.34201941715728
          ],
          [
            -83.0544320123457,
            42.342021414462494
          ],
          [
            -83.05372098224576,
            42.34095116885385
          ],
          [
            -83.05332905512743,
            42.34042260966851
          ],
          [
            -83.05301241979951,
            42.33996300898508
          ],
          [
            -83.0527327655322,
            42.3395546424012
          ],
          [
            -83.05244959944268,
            42.33912311222548
          ],
          [
            -83.0524504319484,
            42.339122804543
          ],
          [
            -83.05225648498246,
            42.3388438884158
          ],
          [
            -83.05209541856732,
            42.33866771297804
          ],
          [
            -83.05194008351864,
            42.33844935369939
          ],
          [
            -83.0515594548449,
            42.33788850569425
          ],
          [
            -83.05128885289862,
            42.337494334024285
          ],
          [
            -83.0511239643781,
            42.33725921474411
          ],
          [
            -83.05097004105804,
            42.33703521677481
          ],
          [
            -83.05074585213659,
            42.33668375776466
          ],
          [
            -83.05053723101972,
            42.33635499892256
          ],
          [
            -83.05053814438145,
            42.336353648601374
          ],
          [
            -83.0503520053521,
            42.33607420572957
          ],
          [
            -83.05023839491678,
            42.3359072969499
          ],
          [
            -83.05002185250598,
            42.33563188557963
          ],
          [
            -83.04978490582305,
            42.33533515223306
          ],
          [
            -83.04946332730816,
            42.33493694321976
          ],
          [
            -83.04902338407106,
            42.33436146859938
          ],
          [
            -83.04878927343789,
            42.33406988986775
          ],
          [
            -83.04844176226531,
            42.333618012057485
          ],
          [
            -83.04811852358291,
            42.33320784996468
          ],
          [
            -83.04770391898535,
            42.33267699464406
          ],
          [
            -83.0473954351795,
            42.33227898522208
          ],
          [
            -83.04731853536002,
            42.33218173262276
          ],
          [
            -83.04731396855087,
            42.33217903180059
          ],
          [
            -83.0470900514161,
            42.3318885442186
          ],
          [
            -83.04707258512246,
            42.33182433871068
          ],
          [
            -83.04707105945977,
            42.331736365784735
          ],
          [
            -83.04707105945977,
            42.33163598627005
          ],
          [
            -83.04707279870063,
            42.33151268861084
          ],
          [
            -83.04707430985299,
            42.33127954215365
          ],
          [
            -83.04707119750482,
            42.3312001629368
          ],
          [
            -83.04705493019455,
            42.33112966538181
          ],
          [
            -83.0470222505413,
            42.3310583389634
          ],
          [
            -83.04697400914864,
            42.33100887059294
          ],
          [
            -83.04691020601588,
            42.33097205689722
          ],
          [
            -83.04684173436192,
            42.33094674746883
          ],
          [
            -83.04677948740292,
            42.33093179189228
          ],
          [
            -83.04670790340079,
            42.33091338502459
          ],
          [
            -83.0466332070505,
            42.33089842944062
          ],
          [
            -83.04653604706196,
            42.330859463968096
          ],
          [
            -83.04648002479928,
            42.330815747598166
          ],
          [
            -83.04641933401467,
            42.33073751822792
          ],
          [
            -83.04605803247745,
            42.3302536195161
          ],
          [
            -83.045935,
            42.330166
          ],
          [
            -83.0458143660607,
            42.3301119769843
          ],
          [
            -83.0457624503108,
            42.3300719281315
          ],
          [
            -83.0455457584653,
            42.3298082725466
          ]
        ]
      }
    },
    {
      "type": "Feature",
      "properties": {
        "type": "Streetcar",
        "network": "Qline Detroit",
        "route_name": "QLINE",
        "color": "#EF4D2E"
      },
      "geometry": {
        "type": "LineString",
        "coordinates": [
          [
            -83.04554485317264,
            42.32980110784561
          ],
          [
            -83.04567073247827,
            42.32996158573627
          ],
          [
            -83.04571885260304,
            42.33002765207442
          ],
          [
            -83.0457378018869,
            42.3300814171904
          ],
          [
            -83.0457288515868,
            42.330160253747465
          ],
          [
            -83.0456958713183,
            42.3303156263531
          ],
          [
            -83.04570097148208,
            42.33037129442309
          ],
          [
            -83.04572471907662,
            42.33042119035963
          ],
          [
            -83.0457842531086,
            42.33050374012146
          ],
          [
            -83.04592572515858,
            42.33068917310024
          ],
          [
            -83.04603962141468,
            42.33082959733622
          ],
          [
            -83.04615202190145,
            42.33097645255876
          ],
          [
            -83.0461863934189,
            42.33103235394694
          ],
          [
            -83.04621014101117,
            42.331093337225326
          ],
          [
            -83.04621389063155,
            42.33118388804115
          ],
          [
            -83.04621201582151,
            42.33120652572456
          ],
          [
            -83.046209,
            42.331268
          ],
          [
            -83.046213,
            42.331397
          ],
          [
            -83.046213,
            42.33171
          ],
          [
            -83.046212,
            42.331796
          ],
          [
            -83.046216,
            42.331963
          ],
          [
            -83.046218,
            42.332002
          ],
          [
            -83.046229,
            42.332037
          ],
          [
            -83.046249,
            42.332076
          ],
          [
            -83.046262,
            42.332094
          ],
          [
            -83.046275,
            42.332109
          ],
          [
            -83.046293,
            42.332124
          ],
          [
            -83.046321,
            42.332138
          ],
          [
            -83.04634782967508,
            42.33215706771705
          ],
          [
            -83.04637220220592,
            42.33216907936466
          ],
          [
            -83.0463990744837,
            42.33217831909167
          ],
          [
            -83.04643282106484,
            42.3321898687488
          ],
          [
            -83.04646594270912,
            42.332196798542014
          ],
          [
            -83.04662967612155,
            42.33220003244495
          ],
          [
            -83.04685992622942,
            42.332200032440994
          ],
          [
            -83.04707583283235,
            42.332203796902775
          ],
          [
            -83.04713020232421,
            42.332216732513416
          ],
          [
            -83.0471939458664,
            42.332250919470994
          ],
          [
            -83.04725393978785,
            42.33229434612
          ],
          [
            -83.04732712270368,
            42.33238701530874
          ],
          [
            -83.04744191892574,
            42.33253112240823
          ],
          [
            -83.04744191892574,
            42.33253435629442
          ],
          [
            -83.04778677524598,
            42.33296895655832
          ],
          [
            -83.04814366485753,
            42.33342456411711
          ],
          [
            -83.0493325216221,
            42.33495596880636
          ],
          [
            -83.0499589783217,
            42.33574014320419
          ],
          [
            -83.05008304477354,
            42.335938985878045
          ],
          [
            -83.0503115927922,
            42.33631666525994
          ],
          [
            -83.05031096785534,
            42.33631805112773
          ],
          [
            -83.05077922826366,
            42.33710367538882
          ],
          [
            -83.05135083540009,
            42.3379320507247
          ],
          [
            -83.05172751436916,
            42.338490978282096
          ],
          [
            -83.05221915131142,
            42.33920443580757
          ],
          [
            -83.05221876358661,
            42.33920529559114
          ],
          [
            -83.0525409311355,
            42.33968223714996
          ],
          [
            -83.0534922572176,
            42.34109295925981
          ],
          [
            -83.05349641910585,
            42.34109603551201
          ],
          [
            -83.054219987705,
            42.34213148018193
          ],
          [
            -83.0546339407534,
            42.342749546676345
          ],
          [
            -83.05605971283364,
            42.34485717260529
          ],
          [
            -83.05659865865876,
            42.34567110250518
          ],
          [
            -83.05664443942632,
            42.34575031017786
          ],
          [
            -83.05760404831129,
            42.34718740133761
          ],
          [
            -83.0576069029204,
            42.34719118294569
          ],
          [
            -83.05776089277428,
            42.34742956890364
          ],
          [
            -83.05823986914577,
            42.34812955218413
          ],
          [
            -83.0599483017792,
            42.35066462180112
          ],
          [
            -83.06119480825829,
            42.35252806017428
          ],
          [
            -83.06120001061838,
            42.35252959802099
          ],
          [
            -83.0612842888447,
            42.3526672351023
          ],
          [
            -83.06160959419024,
            42.35307848904623
          ],
          [
            -83.06203126456829,
            42.3535999217481
          ],
          [
            -83.06230202122137,
            42.35394656627162
          ],
          [
            -83.06358449566174,
            42.35583079644277
          ],
          [
            -83.0643169661065,
            42.35708255167273
          ],
          [
            -83.06458128711782,
            42.35754313409407
          ],
          [
            -83.06470666192179,
            42.3577255241816
          ],
          [
            -83.06470771553226,
            42.35772941702314
          ],
          [
            -83.06490329732083,
            42.35801234817816
          ],
          [
            -83.06515774334841,
            42.35831684317205
          ],
          [
            -83.06540772469056,
            42.35868435585195
          ],
          [
            -83.06576551289768,
            42.35921124668749
          ],
          [
            -83.06600568914597,
            42.35957600638105
          ],
          [
            -83.06646341989298,
            42.36026509542143
          ],
          [
            -83.06684447798344,
            42.36084686149445
          ],
          [
            -83.06684658520486,
            42.36084686149445
          ],
          [
            -83.06710032512991,
            42.361241493628114
          ],
          [
            -83.06833400306748,
            42.363136756045606
          ],
          [
            -83.06864550568679,
            42.36358197321883
          ],
          [
            -83.06908010568529,
            42.36416988666207
          ],
          [
            -83.0702798221601,
            42.36585719510222
          ],
          [
            -83.07046118821225,
            42.36600714485925
          ],
          [
            -83.07058933404805,
            42.36616461449032
          ],
          [
            -83.070584002585,
            42.36616478511968
          ],
          [
            -83.07097327460305,
            42.366764032897294
          ],
          [
            -83.0713194496035,
            42.367309912332985
          ],
          [
            -83.07222879309502,
            42.36867597917666
          ],
          [
            -83.07223147817052,
            42.36867728101072
          ],
          [
            -83.07350154112517,
            42.37062983163042
          ]
        ]
      }
    },
    {
      "type": "Feature",
      "properties": {
        "type": "Streetcar",
        "network": "Qline Detroit",
        "route_name": "QLINE",
        "color": "#EF4D2E",
        "is_station": true,
        "station_name": "Congress St Station"
      },
      "geometry": {
        "type": "Point",
        "coordinates": [
          -83.045533,
          42.32981
        ]
      }
    },
    {
      "type": "Feature",
      "properties": {
        "type": "Streetcar",
        "network": "Qline Detroit",
        "route_name": "QLINE",
        "color": "#EF4D2E",
        "is_station": true,
        "station_name": "Campus Martius - Station"
      },
      "geometry": {
        "type": "Point",
        "coordinates": [
          -83.047424497702,
          42.332530539108234
        ]
      }
    },
    {
      "type": "Feature",
      "properties": {
        "type": "Streetcar",
        "network": "Qline Detroit",
        "route_name": "QLINE",
        "color": "#EF4D2E",
        "is_station": true,
        "station_name": "Grand Circus - Station"
      },
      "geometry": {
        "type": "Point",
        "coordinates": [
          -83.050294,
          42.33632
        ]
      }
    },
    {
      "type": "Feature",
      "properties": {
        "type": "Streetcar",
        "network": "Qline Detroit",
        "route_name": "QLINE",
        "color": "#EF4D2E",
        "is_station": true,
        "station_name": "Montcalm St - Station"
      },
      "geometry": {
        "type": "Point",
        "coordinates": [
          -83.052201,
          42.339209
        ]
      }
    },
    {
      "type": "Feature",
      "properties": {
        "type": "Streetcar",
        "network": "Qline Detroit",
        "route_name": "QLINE",
        "color": "#EF4D2E",
        "is_station": true,
        "station_name": "Adelaide St - Station"
      },
      "geometry": {
        "type": "Point",
        "coordinates": [
          -83.053484,
          42.341099
        ]
      }
    },
    {
      "type": "Feature",
      "properties": {
        "type": "Streetcar",
        "network": "Qline Detroit",
        "route_name": "QLINE",
        "color": "#EF4D2E",
        "is_station": true,
        "station_name": "Mack Ave - Station"
      },
      "geometry": {
        "type": "Point",
        "coordinates": [
          -83.057591,
          42.347199
        ]
      }
    },
    {
      "type": "Feature",
      "properties": {
        "type": "Streetcar",
        "network": "Qline Detroit",
        "route_name": "QLINE",
        "color": "#EF4D2E",
        "is_station": true,
        "station_name": "Canfield St - Station"
      },
      "geometry": {
        "type": "Point",
        "coordinates": [
          -83.0611890788802,
          42.35255413020053
        ]
      }
    },
    {
      "type": "Feature",
      "properties": {
        "type": "Streetcar",
        "network": "Qline Detroit",
        "route_name": "QLINE",
        "color": "#EF4D2E",
        "is_station": true,
        "station_name": "Warren Ave - Station"
      },
      "geometry": {
        "type": "Point",
        "coordinates": [
          -83.064691,
          42.357735
        ]
      }
    },
    {
      "type": "Feature",
      "properties": {
        "type": "Streetcar",
        "network": "Qline Detroit",
        "route_name": "QLINE",
        "color": "#EF4D2E",
        "is_station": true,
        "station_name": "Ferry St - Station"
      },
      "geometry": {
        "type": "Point",
        "coordinates": [
          -83.066826,
          42.360851
        ]
      }
    },
    {
      "type": "Feature",
      "properties": {
        "type": "Streetcar",
        "network": "Qline Detroit",
        "route_name": "QLINE",
        "color": "#EF4D2E",
        "is_station": true,
        "station_name": "Amsterdam St - Station"
      },
      "geometry": {
        "type": "Point",
        "coordinates": [
          -83.07064236176093,
          42.366170274664995
        ]
      }
    },
    {
      "type": "Feature",
      "properties": {
        "type": "Streetcar",
        "network": "Qline Detroit",
        "route_name": "QLINE",
        "color": "#EF4D2E",
        "is_station": true,
        "station_name": "Baltimore St - Station"
      },
      "geometry": {
        "type": "Point",
        "coordinates": [
          -83.07226503213136,
          42.368656903988295
        ]
      }
    },
    {
      "type": "Feature",
      "properties": {
        "type": "Streetcar",
        "network": "Qline Detroit",
        "route_name": "QLINE",
        "color": "#EF4D2E",
        "is_station": true,
        "station_name": "Grand Blvd Station"
      },
      "geometry": {
        "type": "Point",
        "coordinates": [
          -83.07353246395562,
          42.37061481997182
        ]
      }
    },
    {
      "type": "Feature",
      "properties": {
        "type": "Streetcar",
        "network": "Qline Detroit",
        "route_name": "QLINE",
        "color": "#EF4D2E",
        "is_station": true,
        "station_name": "Baltimore St - Station"
      },
      "geometry": {
        "type": "Point",
        "coordinates": [
          -83.07234839754432,
          42.368781489003595
        ]
      }
    },
    {
      "type": "Feature",
      "properties": {
        "type": "Streetcar",
        "network": "Qline Detroit",
        "route_name": "QLINE",
        "color": "#EF4D2E",
        "is_station": true,
        "station_name": "Amsterdam St - Station"
      },
      "geometry": {
        "type": "Point",
        "coordinates": [
          -83.07071110960267,
          42.366277649116284
        ]
      }
    },
    {
      "type": "Feature",
      "properties": {
        "type": "Streetcar",
        "network": "Qline Detroit",
        "route_name": "QLINE",
        "color": "#EF4D2E",
        "is_station": true,
        "station_name": "Ferry St - Station"
      },
      "geometry": {
        "type": "Point",
        "coordinates": [
          -83.067382,
          42.361212
        ]
      }
    },
    {
      "type": "Feature",
      "properties": {
        "type": "Streetcar",
        "network": "Qline Detroit",
        "route_name": "QLINE",
        "color": "#EF4D2E",
        "is_station": true,
        "station_name": "Warren Ave - Station"
      },
      "geometry": {
        "type": "Point",
        "coordinates": [
          -83.064289,
          42.356507
        ]
      }
    },
    {
      "type": "Feature",
      "properties": {
        "type": "Streetcar",
        "network": "Qline Detroit",
        "route_name": "QLINE",
        "color": "#EF4D2E",
        "is_station": true,
        "station_name": "Canfield St - Station"
      },
      "geometry": {
        "type": "Point",
        "coordinates": [
          -83.06145508220992,
          42.352446267107894
        ]
      }
    },
    {
      "type": "Feature",
      "properties": {
        "type": "Streetcar",
        "network": "Qline Detroit",
        "route_name": "QLINE",
        "color": "#EF4D2E",
        "is_station": true,
        "station_name": "Mack Ave - Station"
      },
      "geometry": {
        "type": "Point",
        "coordinates": [
          -83.057849,
          42.347097
        ]
      }
    },
    {
      "type": "Feature",
      "properties": {
        "type": "Streetcar",
        "network": "Qline Detroit",
        "route_name": "QLINE",
        "color": "#EF4D2E",
        "is_station": true,
        "station_name": "Sproat St - Station"
      },
      "geometry": {
        "type": "Point",
        "coordinates": [
          -83.054447,
          42.342015
        ]
      }
    },
    {
      "type": "Feature",
      "properties": {
        "type": "Streetcar",
        "network": "Qline Detroit",
        "route_name": "QLINE",
        "color": "#EF4D2E",
        "is_station": true,
        "station_name": "Montcalm St - Station"
      },
      "geometry": {
        "type": "Point",
        "coordinates": [
          -83.052466,
          42.339117
        ]
      }
    },
    {
      "type": "Feature",
      "properties": {
        "type": "Streetcar",
        "network": "Qline Detroit",
        "route_name": "QLINE",
        "color": "#EF4D2E",
        "is_station": true,
        "station_name": "Grand Circus - Station"
      },
      "geometry": {
        "type": "Point",
        "coordinates": [
          -83.050561,
          42.336351
        ]
      }
    },
    {
      "type": "Feature",
      "properties": {
        "type": "Streetcar",
        "network": "Qline Detroit",
        "route_name": "QLINE",
        "color": "#EF4D2E",
        "is_station": true,
        "station_name": "Campus Martius - Station"
      },
      "geometry": {
        "type": "Point",
        "coordinates": [
          -83.04734718530229,
          42.33218865699243
        ]
      }
    }
  ]
}